NORAD_CAT_ID,OBJECT_NAME,OBJECT_TYPE,EPOCH,MEAN_MOTION,ECCENTRICITY,INCLINATION,RA_OF_ASC_NODE,ARG_OF_PERICENTER,MEAN_ANOMALY,BSTAR,MEAN_MOTION_DOT,MEAN_MOTION_DDOT,TLE_LINE0,TLE_LINE1,TLE_LINE2,SEMIMAJOR_AXIS,PERIOD,APOGEE,PERIGEE,DECAYED
53030.0,STARLINK-4160,PAYLOAD,2022-07-23 22:00:00,15.73209471,0.0001553,53.2182,298.5368,48.1692,38.0554,0.00011646,0.00015761,0.0,0 STARLINK-4160,1 53030U 22076AW  22204.91667824  .00015761  00000-0  11646-3 0  9992,2 53030  53.2182 298.5368 0001553  48.1692  38.0554 15.73209471  1307,6727.868,91.533,350.778,348.68800000000016,0.0
53030.0,STARLINK-4160,PAYLOAD,2022-07-24 14:00:01,15.73269833,0.0001592,53.2186,295.2391,44.9253,219.1932,-0.00075916,-0.00106149,0.0,0 STARLINK-4160,1 53030U 22076AW  22205.58334491 -.00106149  00000-0 -75916-3 0  9990,2 53030  53.2186 295.2391 0001592  44.9253 219.1932 15.73269833  1301,6727.696,91.529,350.63199999999995,348.49,0.0
53030.0,STARLINK-4160,PAYLOAD,2022-07-24 22:00:00,15.73180268,0.0001585,53.2188,293.5886,45.9681,307.1097,-0.00031462,-0.00044506,0.0,0 STARLINK-4160,1 53030U 22076AW  22205.91667824 -.00044506  00000-0 -31462-3 0  9992,2 53030  53.2188 293.5886 0001585  45.9681 307.1097 15.73180268  3239,6727.951,91.534,350.8830000000001,348.75,0.0
53030.0,STARLINK-4160,PAYLOAD,2022-07-25 14:00:01,15.73164868,0.000187,53.2187,290.2912,46.0458,124.7914,0.00031056,0.00043124,0.0,0 STARLINK-4160,1 53030U 22076AW  22206.58334491  .00043124  00000-0  31056-3 0  9999,2 53030  53.2187 290.2912 0001870  46.0458 124.7914 15.73164868  1308,6727.995,91.535,351.11800000000005,348.602,0.0
53030.0,STARLINK-4160,PAYLOAD,2022-07-25 22:00:00,15.73216215,0.000175,53.2182,288.6406,48.2222,211.5192,-2.81e-05,-4.565e-05,0.0,0 STARLINK-4160,1 53030U 22076AW  22206.91667824 -.00004565  00000-0 -28100-4 0  9990,2 53030  53.2182 288.6406 0001750  48.2222 211.5192 15.73216215  1309,6727.849,91.532,350.891,348.537,0.0
53030.0,STARLINK-4160,PAYLOAD,2022-07-26 14:00:01,15.73253195,0.0001783,53.2185,285.3433,42.9532,34.6874,-0.00033436,-0.00047391,0.0,0 STARLINK-4160,1 53030U 22076AW  22207.58334491 -.00047391  00000-0 -33436-3 0  9996,2 53030  53.2185 285.3433 0001783  42.9532  34.6874 15.73253195  3498,6727.744000000002,91.53,350.80800000000005,348.409,0.0
53030.0,STARLINK-4160,PAYLOAD,2022-07-26 22:00:00,15.73218124,0.0001619,53.2186,283.6925,39.8716,126.7467,-7.5292e-06,-1.678e-05,0.0,0 STARLINK-4160,1 53030U 22076AW  22207.91667824 -.00001678  00000-0 -75292-5 0  9998,2 53030  53.2186 283.6925 0001619  39.8716 126.7467 15.73218124  1305,6727.844,91.532,350.798,348.619,0.0
53030.0,STARLINK-4160,PAYLOAD,2022-07-27 06:00:02,15.73235022,0.0001574,53.2187,282.0425,44.1354,211.4869,0.00013433,0.00018301,0.0,0 STARLINK-4160,1 53030U 22076AW  22208.25002315  .00018301  00000-0  13433-3 0  9990,2 53030  53.2187 282.0425 0001574  44.1354 211.4869 15.73235022  3600,6727.795,91.531,350.719,348.601,0.0
53030.0,STARLINK-4160,PAYLOAD,2022-07-27 14:00:01,15.73234502,0.0001766,53.2183,280.3951,36.3528,308.188,-0.00032371,-0.00045873,0.0,0 STARLINK-4160,1 53030U 22076AW  22208.58334491 -.00045873  00000-0 -32371-3 0  9997,2 53030  53.2183 280.3951 0001766  36.3528 308.1880 15.73234502  1304,6727.797,91.531,350.85,348.474,0.0
53030.0,STARLINK-4160,PAYLOAD,2022-07-27 22:00:00,15.73224356,0.0001855,53.2179,278.7444,46.9828,26.4826,0.00011337,0.00015336,0.0,0 STARLINK-4160,1 53030U 22076AW  22208.91667824  .00015336  00000-0  11337-3 0  9991,2 53030  53.2179 278.7444 0001855  46.9828  26.4826 15.73224356  1302,6727.826,91.532,350.939,348.4430000000001,0.0
53030.0,STARLINK-4160,PAYLOAD,2022-07-28 00:00:00,15.73206901,0.0001801,53.2178,278.3302,46.7859,138.9261,0.00045527,0.00063781,0.0,0 STARLINK-4160,1 53030U 22076AW  22209.00001157  .00063781  00000-0  45527-3 0  9998,2 53030  53.2178 278.3302 0001801  46.7859 138.9261 15.73206901  3718,6727.875,91.533,350.952,348.529,0.0
53030.0,STARLINK-4160,PAYLOAD,2022-07-28 14:00:01,15.73175077,0.0001889999999999,53.218,275.4471,38.1463,213.2462,0.00044848,0.00062727,0.0,0 STARLINK-4160,1 53030U 22076AW  22209.58334491  .00062727  00000-0  44848-3 0  9995,2 53030  53.2180 275.4471 0001890  38.1463 213.2462 15.73175077  1302,6727.965999999999,91.535,351.103,348.56,0.0
53030.0,STARLINK-4160,PAYLOAD,2022-07-28 22:00:00,15.73247863,0.0001675,53.218,273.796,37.6342,302.6934,-0.00061843,-0.00086704,0.0,0 STARLINK-4160,1 53030U 22076AW  22209.91667824 -.00086704  00000-0 -61843-3 0  9998,2 53030  53.2180 273.7960 0001675  37.6342 302.6934 15.73247863  1307,6727.759,91.53,350.751,348.497,0.0
53030.0,STARLINK-4160,PAYLOAD,2022-07-29 00:00:00,15.7320209,0.000161,53.218,273.3832,36.7278,55.853,-7.7286e-05,-0.00011453,0.0,0 STARLINK-4160,1 53030U 22076AW  22210.00001157 -.00011453  00000-0 -77286-4 0  9999,2 53030  53.2180 273.3832 0001610  36.7278  55.8530 15.73202090  3874,6727.889,91.533,350.837,348.671,0.0
53030.0,STARLINK-4160,PAYLOAD,2022-07-29 14:00:01,15.73196862,0.0001855999999999,53.2177,270.4988,30.6274,127.5583,-7.6577e-05,-0.00011352,0.0,0 STARLINK-4160,1 53030U 22076AW  22210.58334491 -.00011352  00000-0 -76577-4 0  9992,2 53030  53.2177 270.4988 0001856  30.6274 127.5583 15.73196862  1301,6727.904,91.533,351.01800000000014,348.52,0.0
53030.0,STARLINK-4160,PAYLOAD,2022-07-29 22:00:00,15.73157682,0.0001593,53.2174,268.8476,28.6432,218.4716,8.7036e-05,0.0001159,0.0,0 STARLINK-4160,1 53030U 22076AW  22210.91667824  .00011590  00000-0  87036-4 0  9992,2 53030  53.2174 268.8476 0001593  28.6432 218.4716 15.73157682  1307,6728.016,91.536,350.95300000000015,348.809,0.0
53030.0,STARLINK-4160,PAYLOAD,2022-07-30 06:00:00,15.73188612,0.0001563,53.2174,267.1984,30.6595,305.3276,5.9176e-06,2.1e-06,0.0,0 STARLINK-4160,1 53030U 22076AW  22211.25001157  .00000210  00000-0  59176-5 0  9993,2 53030  53.2174 267.1984 0001563  30.6595 305.3276 15.73188612  4074,6727.928000000001,91.534,350.844,348.741,0.0
53030.0,STARLINK-4160,PAYLOAD,2022-07-30 14:00:01,15.73161386,0.0001806,53.2173,265.5508,26.5438,38.3573,0.00051284,0.00071854,0.0,0 STARLINK-4160,1 53030U 22076AW  22211.58334491  .00071854  00000-0  51284-3 0  9991,2 53030  53.2173 265.5508 0001806  26.5438  38.3573 15.73161386  1302,6728.005,91.535,351.085,348.655,0.0
53030.0,STARLINK-4160,PAYLOAD,2022-07-30 22:00:00,15.73196707,0.0001665,53.2176,263.8994,27.8793,125.9385,0.00020699,0.00028524,0.0,0 STARLINK-4160,1 53030U 22076AW  22211.91667824  .00028524  00000-0  20699-3 0  9999,2 53030  53.2176 263.8994 0001665  27.8793 125.9385 15.73196707  1305,6727.905,91.533,350.89,348.649,0.0
53030.0,STARLINK-4160,PAYLOAD,2022-07-31 06:00:02,15.73239609,0.0001759,53.2177,262.2501,32.6337,210.1841,-7.0249e-06,-1.608e-05,0.0,0 STARLINK-4160,1 53030U 22076AW  22212.25002315 -.00001608  00000-0 -70249-5 0  9999,2 53030  53.2177 262.2501 0001759  32.6337 210.1841 15.73239609  4233,6727.781999999997,91.531,350.831,348.464,0.0
53030.0,STARLINK-4160,PAYLOAD,2022-07-31 14:00:01,15.73225737,0.0002066999999999,53.2172,260.6022,31.4124,300.3129,-0.00022337,-0.00031888,0.0,0 STARLINK-4160,1 53030U 22076AW  22212.58334491 -.00031888  00000-0 -22337-3 0  9994,2 53030  53.2172 260.6022 0002067  31.4124 300.3129 15.73225737  1305,6727.821999999999,91.532,351.077,348.296,0.0
53030.0,STARLINK-4160,PAYLOAD,2022-07-31 22:00:00,15.73181535,0.0001875,53.2171,258.9506,37.898,22.7848,0.0003083999999999,0.0004285,0.0,0 STARLINK-4160,1 53030U 22076AW  22212.91667824  .00042850  00000-0  30840-3 0  9997,2 53030  53.2171 258.9506 0001875  37.8980  22.7848 15.73181535  4333,6727.948,91.534,351.074,348.551,0.0
53030.0,STARLINK-4160,PAYLOAD,2022-08-01 14:00:01,15.73230959,0.0002056,53.2171,255.6536,32.6239,205.9442,0.00015102,0.00020655,0.0,0 STARLINK-4160,1 53030U 22076AW  22213.58334491  .00020655  00000-0  15102-3 0  9995,2 53030  53.2171 255.6536 0002056  32.6239 205.9442 15.73230959  1306,6727.807,91.531,351.055,348.289,0.0
53030.0,STARLINK-4160,PAYLOAD,2022-08-01 22:00:00,15.7318614,0.0001846,53.2175,254.0019,34.3877,293.1658,0.00021718,0.00029951,0.0,0 STARLINK-4160,1 53030U 22076AW  22213.91667824  .00029951  00000-0  21718-3 0  9999,2 53030  53.2175 254.0019 0001846  34.3877 293.1658 15.73186140  4495,6727.935,91.534,351.042,348.55800000000005,0.0
53030.0,STARLINK-4160,PAYLOAD,2022-08-02 14:00:01,15.73168993,0.0002039,53.2173,250.7047,25.7304,119.7057,0.00014473,0.00019713,0.0,0 STARLINK-4160,1 53030U 22076AW  22214.58334491  .00019713  00000-0  14473-3 0  9999,2 53030  53.2173 250.7047 0002039  25.7304 119.7057 15.73168993  1300,6727.984,91.535,351.22,348.477,0.0
53030.0,STARLINK-4160,PAYLOAD,2022-08-03 06:00:00,15.73191358,0.0001838,53.2175,247.4048,32.253,290.9309,-6.4825e-05,-9.705e-05,0.0,0 STARLINK-4160,1 53030U 22076AW  22215.25001157 -.00009705  00000-0 -64825-4 0  9993,2 53030  53.2175 247.4048 0001838  32.2530 290.9309 15.73191358  4706,6727.92,91.534,351.021,348.548,0.0
53030.0,STARLINK-4160,PAYLOAD,2022-08-03 14:00:01,15.7320093,0.0002085999999999,53.2174,245.7565,30.2399,21.8578,5.3677e-05,6.919e-05,0.0,0 STARLINK-4160,1 53030U 22076AW  22215.58334491  .00006919  00000-0  53677-4 0  9994,2 53030  53.2174 245.7565 0002086  30.2399  21.8578 15.73200930  1306,6727.893,91.533,351.161,348.35400000000016,0.0
53030.0,STARLINK-4160,PAYLOAD,2022-08-03 22:00:01,15.73149035,0.0001928,53.2179,244.1049,37.2163,103.8909,0.00029668,0.00041131,0.0,0 STARLINK-4160,1 53030U 22076AW  22215.91668981  .00041131  00000-0  29668-3 0  9992,2 53030  53.2179 244.1049 0001928  37.2163 103.8909 15.73149035  1308,6728.04,91.536,351.20300000000015,348.608,0.0
53030.0,STARLINK-4160,PAYLOAD,2022-08-04 14:00:01,15.73203802,0.0001972,53.2173,240.797,42.9577,275.95,1.619e-05,1.652e-05,0.0,0 STARLINK-4160,1 53030U 22076AW  22216.58334491  .00001652  00000-0  16190-4 0  9993,2 53030  53.2173 240.7970 0001972  42.9577 275.9500 15.73203802  4919,6727.884,91.533,351.076,348.423,0.0
